QIANFAN-9               
1 60387U 24140J   25340.24084229  .00000108  00000+0  14869-3 0  9999
2 60387  88.9756 300.0091 0014842 211.6804 148.3456 13.50980051 66457
QIANFAN-10              
1 60388U 24140K   25340.24503292  .00000116  00000+0  16172-3 0  9994
2 60388  88.9766 299.3551 0013961 186.7446 173.3519 13.50980586 66580
QIANFAN-11              
1 60389U 24140L   25340.28210050  .00000130  00000+0  18274-3 0  9997
2 60389  88.9692 299.9434 0012899 210.4400 149.6004 13.50976952 66249
QIANFAN-12              
1 60390U 24140M   25340.22853430  .00000144  00000+0  20444-3 0  9995
2 60390  88.9735 299.9896 0011523 219.2885 140.7431 13.50977722 66363
QIANFAN-13              
1 60391U 24140N   25340.27379812  .00000119  00000+0  16590-3 0  9997
2 60391  88.9747 300.0840 0011293 222.1284 137.9000 13.50978197 66390
QIANFAN-14              
1 60392U 24140P   25340.29838946  .00000115  00000+0  15992-3 0  9999
2 60392  88.9726 299.9804 0014973 223.1539 136.8440 13.50977684 66404
QIANFAN-15              
1 60393U 24140Q   25340.23260863  .00000109  00000+0  15006-3 0  9990
2 60393  88.9749 299.9421 0011103 206.3608 153.6980 13.50976445 66384
QIANFAN-16              
1 60394U 24140R   25340.29446977  .00000135  00000+0  19119-3 0  9997
2 60394  88.9753 300.0558 0012836 227.0299 132.9776 13.50981796 66305
